{
  "type": "FeatureCollection",
  "features": [
    {
      "type": "Feature",
      "properties": {
        "norad_id": 41772,
        "name": "SKYSAT-C5",
        "group": "resource",
        "lat": -10.906414347419334,
        "lon": 34.49568647888703,
        "alt_km": 467.6861895506081,
        "timestamp": "2025-12-15T11:38:36.815038+00:00",
        "meta_object_name": "SKYSAT-C5",
        "meta_object_id": "2016-058C",
        "meta_epoch": "2025-12-14T09:05:09.218688",
        "meta_mean_motion": 15.34508892,
        "meta_eccentricity": 0.00017065,
        "meta_inclination": 97.0767,
        "meta_ra_of_asc_node": 32.0626,
        "meta_arg_of_pericenter": 208.1694,
        "meta_mean_anomaly": 151.9458,
        "meta_ephemeris_type": 0,
        "meta_classification_type": "U",
        "meta_norad_cat_id": 41772,
        "meta_element_set_no": 999,
        "meta_rev_at_epoch": 51541,
        "meta_bstar": 0.00031915043,
        "meta_mean_motion_dot": 0.00010597,
        "meta_mean_motion_ddot": 0,
        "tle_line1": "1 41772U 16058C   25348.37857892  .00010597  00000+0  31915-3 0  9995",
        "tle_line2": "2 41772  97.0767  32.0626 0001706 208.1694 151.9458 15.34508892515416"
      },
      "geometry": {
        "type": "Point",
        "coordinates": [
          34.49568647888703,
          -10.906414347419334
        ]
      }
    },
    {
      "type": "Feature",
      "properties": {
        "norad_id": 41773,
        "name": "SKYSAT-C2",
        "group": "resource",
        "lat": 27.531739337499936,
        "lon": 10.20420309016518,
        "alt_km": 450.2169281477172,
        "timestamp": "2025-12-15T11:38:36.815048+00:00",
        "meta_object_name": "SKYSAT-C2",
        "meta_object_id": "2016-058D",
        "meta_epoch": "2025-12-14T19:54:05.745024",
        "meta_mean_motion": 15.37324825,
        "meta_eccentricity": 0.00040233,
        "meta_inclination": 97.0368,
        "meta_ra_of_asc_node": 13.2677,
        "meta_arg_of_pericenter": 29.5466,
        "meta_mean_anomaly": 330.6007,
        "meta_ephemeris_type": 0,
        "meta_classification_type": "U",
        "meta_norad_cat_id": 41773,
        "meta_element_set_no": 999,
        "meta_rev_at_epoch": 51668,
        "meta_bstar": 0.0002503567,
        "meta_mean_motion_dot": 9.083e-05,
        "meta_mean_motion_ddot": 0,
        "tle_line1": "1 41773U 16058D   25348.82923316  .00009083  00000+0  25036-3 0  9996",
        "tle_line2": "2 41773  97.0368  13.2677 0004023  29.5466 330.6007 15.37324825516689"
      },
      "geometry": {
        "type": "Point",
        "coordinates": [
          10.20420309016518,
          27.531739337499936
        ]
      }
    },
    {
      "type": "Feature",
      "properties": {
        "norad_id": 41774,
        "name": "SKYSAT-C3",
        "group": "resource",
        "lat": -71.75079975462813,
        "lon": 44.75175112555972,
        "alt_km": 441.37320695715425,
        "timestamp": "2025-12-15T11:38:36.815058+00:00",
        "meta_object_name": "SKYSAT-C3",
        "meta_object_id": "2016-058E",
        "meta_epoch": "2025-12-14T15:44:43.646208",
        "meta_mean_motion": 15.4447612,
        "meta_eccentricity": 0.00017544,
        "meta_inclination": 96.9306,
        "meta_ra_of_asc_node": 22.3127,
        "meta_arg_of_pericenter": 108.895,
        "meta_mean_anomaly": 251.249,
        "meta_ephemeris_type": 0,
        "meta_classification_type": "U",
        "meta_norad_cat_id": 41774,
        "meta_element_set_no": 999,
        "meta_rev_at_epoch": 51755,
        "meta_bstar": 0.00033836683,
        "meta_mean_motion_dot": 0.00015602,
        "meta_mean_motion_ddot": 0,
        "tle_line1": "1 41774U 16058E   25348.65606072  .00015602  00000+0  33837-3 0  9997",
        "tle_line2": "2 41774  96.9306  22.3127 0001754 108.8950 251.2490 15.44476120517553"
      },
      "geometry": {
        "type": "Point",
        "coordinates": [
          44.75175112555972,
          -71.75079975462813
        ]
      }
    },
    {
      "type": "Feature",
      "properties": {
        "norad_id": 41785,
        "name": "ALSAT 1B",
        "group": "resource",
        "lat": 28.153181873070167,
        "lon": -174.64616837701055,
        "alt_km": 648.992081458855,
        "timestamp": "2025-12-15T11:38:36.815068+00:00",
        "meta_object_name": "ALSAT 1B",
        "meta_object_id": "2016-059C",
        "meta_epoch": "2025-12-14T23:32:21.952896",
        "meta_mean_motion": 14.72078866,
        "meta_eccentricity": 0.00107695,
        "meta_inclination": 97.7821,
        "meta_ra_of_asc_node": 0.6743,
        "meta_arg_of_pericenter": 97.0072,
        "meta_mean_anomaly": 263.2361,
        "meta_ephemeris_type": 0,
        "meta_classification_type": "U",
        "meta_norad_cat_id": 41785,
        "meta_element_set_no": 999,
        "meta_rev_at_epoch": 49347,
        "meta_bstar": 0.00011333064,
        "meta_mean_motion_dot": 6.66e-06,
        "meta_mean_motion_ddot": 0,
        "tle_line1": "1 41785U 16059C   25348.98080964  .00000666  00000+0  11333-3 0  9993",
        "tle_line2": "2 41785  97.7821   0.6743 0010769  97.0072 263.2361 14.72078866493478"
      },
      "geometry": {
        "type": "Point",
        "coordinates": [
          -174.64616837701055,
          28.153181873070167
        ]
      }
    },
    {
      "type": "Feature",
      "properties": {
        "norad_id": 41787,
        "name": "PATHFINDER 1",
        "group": "resource",
        "lat": -3.4463615094877142,
        "lon": 171.65750210182003,
        "alt_km": 680.4328261703686,
        "timestamp": "2025-12-15T11:38:36.815078+00:00",
        "meta_object_name": "PATHFINDER 1",
        "meta_object_id": "2016-059E",
        "meta_epoch": "2025-12-14T21:43:14.054592",
        "meta_mean_motion": 14.67324685,
        "meta_eccentricity": 0.00300023,
        "meta_inclination": 97.8138,
        "meta_ra_of_asc_node": 351.5781,
        "meta_arg_of_pericenter": 74.6527,
        "meta_mean_anomaly": 285.799,
        "meta_ephemeris_type": 0,
        "meta_classification_type": "U",
        "meta_norad_cat_id": 41787,
        "meta_element_set_no": 999,
        "meta_rev_at_epoch": 49268,
        "meta_bstar": 0.00015991593,
        "meta_mean_motion_dot": 8.62e-06,
        "meta_mean_motion_ddot": 0,
        "tle_line1": "1 41787U 16059E   25348.90502378  .00000862  00000+0  15992-3 0  9998",
        "tle_line2": "2 41787  97.8138 351.5781 0030002  74.6527 285.7990 14.67324685492686"
      },
      "geometry": {
        "type": "Point",
        "coordinates": [
          171.65750210182003,
          -3.4463615094877142
        ]
      }
    },
    {
      "type": "Feature",
      "properties": {
        "norad_id": 41790,
        "name": "SCATSAT 1",
        "group": "resource",
        "lat": -68.07024146279613,
        "lon": 67.0326057600051,
        "alt_km": 678.9564496560779,
        "timestamp": "2025-12-15T11:38:36.815088+00:00",
        "meta_object_name": "SCATSAT 1",
        "meta_object_id": "2016-059H",
        "meta_epoch": "2025-12-14T22:58:14.097504",
        "meta_mean_motion": 14.78945462,
        "meta_eccentricity": 0.00563607,
        "meta_inclination": 98.1466,
        "meta_ra_of_asc_node": 45.6552,
        "meta_arg_of_pericenter": 120.9819,
        "meta_mean_anomaly": 239.6946,
        "meta_ephemeris_type": 0,
        "meta_classification_type": "U",
        "meta_norad_cat_id": 41790,
        "meta_element_set_no": 999,
        "meta_rev_at_epoch": 7435,
        "meta_bstar": 0.00019277667,
        "meta_mean_motion_dot": 1.404e-05,
        "meta_mean_motion_ddot": 0,
        "tle_line1": "1 41790U 16059H   25348.95710761  .00001404  00000+0  19278-3 0  9998",
        "tle_line2": "2 41790  98.1466  45.6552 0056360 120.9819 239.6946 14.78945462 74352"
      },
      "geometry": {
        "type": "Point",
        "coordinates": [
          67.0326057600051,
          -68.07024146279613
        ]
      }
    },
    {
      "type": "Feature",
      "properties": {
        "norad_id": 41875,
        "name": "GOKTURK 1A",
        "group": "resource",
        "lat": -35.17275206590997,
        "lon": 56.02284182946787,
        "alt_km": 691.0990569236392,
        "timestamp": "2025-12-15T11:38:36.815098+00:00",
        "meta_object_name": "GOKTURK 1A",
        "meta_object_id": "2016-073A",
        "meta_epoch": "2025-12-14T23:10:11.201952",
        "meta_mean_motion": 14.62784168,
        "meta_eccentricity": 0.00012359,
        "meta_inclination": 98.1426,
        "meta_ra_of_asc_node": 241.301,
        "meta_arg_of_pericenter": 80.4017,
        "meta_mean_anomaly": 279.7325,
        "meta_ephemeris_type": 0,
        "meta_classification_type": "U",
        "meta_norad_cat_id": 41875,
        "meta_element_set_no": 999,
        "meta_rev_at_epoch": 48189,
        "meta_bstar": 0.00017261321,
        "meta_mean_motion_dot": 8.34e-06,
        "meta_mean_motion_ddot": 0,
        "tle_line1": "1 41875U 16073A   25348.96540743  .00000834  00000+0  17261-3 0  9996",
        "tle_line2": "2 41875  98.1426 241.3010 0001235  80.4017 279.7325 14.62784168481891"
      },
      "geometry": {
        "type": "Point",
        "coordinates": [
          56.02284182946787,
          -35.17275206590997
        ]
      }
    }
  ]
}